CUTE-1 (CO-55)          
1 27844U 03031E   21316.90834710  .00000094  00000-0  61924-4 0  9996
2 27844  98.6814 322.8777 0010092  15.3397 344.8085 14.22349319953084
CUBESAT XI-IV (CO-57)   
1 27848U 03031J   21317.01627927  .00000075  00000-0  53674-4 0  9995
2 27848  98.6865 323.5372 0010210  28.2497 331.9232 14.21921114952953
CUBESAT XI-V            
1 28895U 05043F   21316.87992928  .00000258  00000-0  58062-4 0  9991
2 28895  98.0795  87.0616 0017990 102.6386 257.6829 14.64004193855955
CUTE-1.7+APD II (CO-65) 
1 32785U 08021C   21316.79932544  .00000541  00000-0  63303-4 0  9991
2 32785  97.6301 290.0370 0011667 227.4520 132.5713 14.88889259734241
AAUSAT-II               
1 32788U 08021F   21316.93715663  .00001140  00000-0  10656-3 0  9999
2 32788  97.5169 305.4836 0012865 125.8005 234.4414 14.95936682736156
DELFI-C3 (DO-64)        
1 32789U 08021G   21316.65200823  .00002906  00000-0  18317-3 0  9999
2 32789  97.3635 346.2745 0011231   1.1170 359.0083 15.09850051739183
SEEDS II (CO-66)        
1 32791U 08021J   21316.82762792  .00000948  00000-0  99626-4 0  9996
2 32791  97.5879 295.8185 0012786 185.5384 174.5696 14.91645056734895
SWISSCUBE               
1 35932U 09051B   21316.80387219  .00000232  00000-0  62992-4 0  9997
2 35932  98.5885 161.4178 0007630   1.1870 358.9344 14.56613920644555
BEESAT-1                
1 35933U 09051C   21317.31364281  .00000189  00000-0  53435-4 0  9992
2 35933  98.5837 163.6989 0006030  14.7046 345.4326 14.56662049644787
ITUPSAT1                
1 35935U 09051E   21316.85687292  .00000177  00000-0  51448-4 0  9991
2 35935  98.5939 163.3355 0008393  14.9677 345.1767 14.55788339644362
TISAT 1                 
1 36799U 10035E   21317.48565989  .00000784  00000-0  83422-4 0  9993
2 36799  98.1980 154.3318 0013331  85.2273 275.0466 14.91974052615750
M-CUBED & EXP-1 PRIME   
1 37855U 11061F   21316.90345815  .00003833  00000-0  18612-3 0  9993
2 37855 101.7244 317.4946 0163849 348.9519  10.8113 15.08689336549026
AEROCUBE 4.5A           
1 38767U 12048K   21316.75984624  .00000995  00000-0  86115-4 0  9992
2 38767  64.6656  70.3546 0170032 322.1743  36.7515 14.93200908118414
AEROCUBE 4.5B           
1 38768U 12048L   21317.46694422  .00001757  00000-0  12956-3 0  9994
2 38768  64.6684  27.2128 0161324 316.8758  41.9809 14.97214495118798
STRAND-1                
1 39090U 13009E   21316.83561553  .00000056  00000-0  34509-4 0  9999
2 39090  98.4150 155.4646 0008778 190.3463 169.7543 14.35202144456328
SOMP                    
1 39134U 13015E   21316.71269658  .00003726  00000-0  16223-3 0  9992
2 39134  64.8646  50.0067 0023230 311.3073  48.6056 15.23663163473797
BEESAT-3                
1 39135U 13015F   21316.70550609  .00002787  00000-0  13659-3 0  9997
2 39135  64.8672  81.7313 0021800 325.8474  34.1249 15.20205026473137
BEESAT-2                
1 39136U 13015G   21316.83457658  .00003177  00000-0  15794-3 0  9998
2 39136  64.8757  88.3442 0013899 245.0523 114.9160 15.19505224472976
NEE-01 PEGASO           
1 39151U 13018B   21317.25923428  .00000352  00000-0  52977-4 0  9995
2 39151  97.9858  58.9046 0015921 233.1736 126.8016 14.80465034461697
ESTCUBE 1               
1 39161U 13021C   21317.50200277  .00000418  00000-0  73296-4 0  9998
2 39161  97.9292  35.1982 0010300  38.7184 321.4740 14.72580426457683
POPACS 1                
1 39268U 13055D   21316.86880455  .00009789  00000-0  25613-3 0  9992
2 39268  80.9961 111.3626 0593971 131.6177 233.7503 14.45067726423445
POPACS 2                
1 39269U 13055E   21316.87179666  .00003320  00000-0  94255-4 0  9993
2 39269  81.0129 162.0886 0661676 263.1141  89.4386 14.29133827420434
POPACS 3                
1 39270U 13055F   21316.90693063  .00004256  00000-0  13101-3 0  9990
2 39270  81.0164 191.2596 0700040 346.1151  12.1596 14.19241874418590
ZACUBE-1 (TSHEPISOSAT)  
1 39417U 13066B   21316.89615455  .00000583  00000-0  78369-4 0  9999
2 39417  97.6105 293.6708 0059410  35.7587 324.7583 14.81672102431050
WNISAT-1                
1 39423U 13066H   21317.45972243  .00000184  00000-0  45388-4 0  9992
2 39423  97.7771 209.4991 0176185  92.1814 269.9569 14.53276822423070
TRITON-1                
1 39427U 13066M   21317.28569058  .00000370  00000-0  66557-4 0  9991
2 39427  97.7912 257.8619 0111762 235.0781 123.9884 14.68392186427246
DELFI-N3XT              
1 39428U 13066N   21317.06783475  .00000599  00000-0  10200-3 0  9995
2 39428  97.7945 256.1537 0117853 249.1629 109.6923 14.68249630426955
GOMX-1                  
1 39430U 13066Q   21317.49128457  .00000669  00000-0  12876-3 0  9997
2 39430  97.8122 231.9878 0150824   5.9923 354.3015 14.59739145424780
CUBEBUG-2 (LO-74)       
1 39440U 13066AA  21317.15725981  .00000405  00000-0  62309-4 0  9991
2 39440  97.6969 279.3215 0080997 112.6585 248.3216 14.76383880429568
NEE-02 KRYSAOR          
1 39441U 13066AB  21316.85280295  .00000298  00000-0  48816-4 0  9999
2 39441  97.7070 276.3132 0082468 125.4951 235.3989 14.75285672428091
FUNCUBE-1 (AO-73)       
1 39444U 13066AE  21316.92309621  .00000720  00000-0  93203-4 0  9995
2 39444  97.6001 296.0830 0058197  25.3564 335.0486 14.82612496429436
UWE-3                   
1 39446U 13066AG  21316.87472595  .00000499  00000-0  71553-4 0  9999
2 39446  97.6567 285.8211 0070976  75.6755 285.2324 14.78927922428448
AEROCUBE 5A             
1 39465U 13072D   21316.80782394  .00012726  00000-0  88256-3 0  9994
2 39465 120.4920 231.7820 0250743  53.9435 308.4578 14.84075270117349
AEROCUBE 5B             
1 39466U 13072E   21317.18734717  .00022082  00000-0  11880-2 0  9997
2 39466 120.4694 300.3497 0213554  69.4050 292.9783 14.97446998118164
BRITE-CA1 (TORONTO)     
1 40020U 14033L   21317.45715447  .00000227  00000-0  47034-4 0  9991
2 40020  97.7543 122.7902 0086132 231.9429 127.3983 14.66798180396108
DUCHIFAT-1              
1 40021U 14033M   21316.80312161  .00001132  00000-0  11846-3 0  9993
2 40021  97.9866 258.6797 0013751  40.0969 320.1262 14.91625812402396
NANOSATC-BR1            
1 40024U 14033Q   21316.79305272  .00000858  00000-0  93296-4 0  9993
2 40024  97.9627 253.0858 0013204  45.8808 314.3493 14.90679279401697
QB50P1                  
1 40025U 14033R   21316.81257484  .00000704  00000-0  79501-4 0  9991
2 40025  97.9415 247.9439 0013598  54.1952 306.0527 14.89641513401503
QB50P2                  
1 40032U 14033Y   21316.76085962  .00000681  00000-0  78114-4 0  9996
2 40032  97.9224 244.0161 0012950  52.2018 308.0369 14.89135386401368
PERSEUS-M2              
1 40037U 14033AD  21316.74945495  .00000269  00000-0  36336-4 0  9997
2 40037  97.8900 235.3098 0015741  70.8221 289.4696 14.86755904400925
PERSEUS-M1              
1 40039U 14033AF  21316.75545177  .00000266  00000-0  36340-4 0  9995
2 40039  97.8824 233.4421 0015581  69.6871 290.6017 14.86373971400819
POLYITAN-1              
1 40042U 14033AJ  21317.28506363  .00000872  00000-0  97485-4 0  9992
2 40042  97.9514 249.3625 0015683  44.2861 315.9608 14.89488306401970
TIGRISAT                
1 40043U 14033AK  21317.47147354  .00000290  00000-0  49360-4 0  9998
2 40043  97.6605 153.3742 0060607 134.9724 225.6422 14.74632346398092
AEROCUBE 6A             
1 40045U 14033AM  21317.50386129  .00000342  00000-0  55416-4 0  9996
2 40045  97.6788 161.3362 0058447 124.0711 236.6067 14.75942398398165
AEROCUBE 6B             
1 40046U 14033AN  21316.82746556  .00000574  00000-0  88116-4 0  9995
2 40046  97.6689 159.3558 0057637 124.9125 235.7520 14.76028205397827
UKUBE-1                 
1 40074U 14037F   21317.39549027  .00000662  00000-0  85204-4 0  9990
2 40074  98.4085 181.4875 0003254 266.7295  93.3546 14.84722695398004
BRITE-PL2 (HEWELIUSZ)   
1 40119U 14049B   21316.83250637  .00000284  00000-0  39890-4 0  9997
2 40119  97.8883  49.7663 0016338 227.7552 132.2277 14.84746975391862
FIREBIRD 4              
1 40378U 15003C   21316.93123032  .00003509  00000-0  12423-3 0  9999
2 40378  99.1145 129.7756 0114116  35.0209 325.8459 15.24090434375398
GRIFEX                  
1 40379U 15003D   21317.25462639  .00002885  00000-0  11516-3 0  9993
2 40379  99.1135 118.1614 0126081  69.7499 291.7233 15.19254820374779
CP10 (EXOCUBE)          
1 40380U 15003E   21317.42127933  .00002308  00000-0  98414-4 0  9992
2 40380  99.1157 112.1586 0132133  89.8450 271.7918 15.16776199374393
TIANWANG 1A (TW-1A)     
1 40928U 15051D   21317.45084524  .00009939  00000-0  18928-3 0  9992
2 40928  97.0664 338.8935 0011053 103.0725   6.7121 15.48325665344726
EXACTVIEW 9             
1 40936U 15052G   21317.35512227  .00000967  00000-0  45738-4 0  9999
2 40936   6.0030 275.3638 0010634 334.3354  25.6246 14.76790158331253
AEROCUBE 5C             
1 40965U 15058B   21317.19698218  .00000551  00000-0  75672-4 0  9993
2 40965  64.7784  27.2540 0210111 266.0309  91.6755 14.74926245117066
AEROCUBE 7              
1 40966U 15058C   21317.19515003  .00000725  00000-0  93237-4 0  9994
2 40966  64.7783  24.9245 0208767 265.6942  92.0284 14.75319162117072
ATHENOXAT 1             
1 41168U 15077C   21317.16561874  .00004985  00000-0  21164-3 0  9995
2 41168  14.9863 247.0337 0010436  89.3186  46.1973 15.16649813327385
GALASSIA                
1 41170U 15077E   21316.45033701  .00003808  00000-0  15282-3 0  9999
2 41170  14.9881 242.7347 0011700 109.8791 250.2791 15.16749276327195
VELOX-II                
1 41171U 15077F   21316.59365622  .00003122  00000-0  13352-3 0  9990
2 41171  14.9920 305.0780 0008357 330.2511  29.7334 15.13151951326755
HORYU-4                 
1 41340U 16012D   21317.14754494  .00000999  00000-0  67465-4 0  9993
2 41340  31.0052 299.0335 0013833 209.7889 150.1960 15.02156802315165
E-ST@R-II               
1 41459U 16025D   21317.39498382  .00003874  00000-0  18801-3 0  9990
2 41459  98.1628 102.7721 0155881 280.3058  78.0627 15.09096812304876
